[{"OBJECT_NAME":"HJ-2F","OBJECT_ID":"2023-116A","EPOCH":"2026-03-09T22:49:19.583040","MEAN_MOTION":15.20784398,"ECCENTRICITY":0.00100751,"INCLINATION":97.3886,"RA_OF_ASC_NODE":75.9939,"ARG_OF_PERICENTER":41.1134,"MEAN_ANOMALY":319.0859,"EPHEMERIS_TYPE":0,"CLASSIFICATION_TYPE":"U","NORAD_CAT_ID":57519,"ELEMENT_SET_NO":999,"REV_AT_EPOCH":14366,"BSTAR":0.00048860697,"MEAN_MOTION_DOT":0.00010719,"MEAN_MOTION_DDOT":0},{"OBJECT_NAME":"TRANSPORTER-15 OBJECT F","OBJECT_ID":"2025-276F","EPOCH":"2026-03-09T17:57:42.210144","MEAN_MOTION":15.19380664,"ECCENTRICITY":0.00054716,"INCLINATION":97.4283,"RA_OF_ASC_NODE":144.0186,"ARG_OF_PERICENTER":0.0521,"MEAN_ANOMALY":0.0713,"EPHEMERIS_TYPE":0,"CLASSIFICATION_TYPE":"U","NORAD_CAT_ID":66671,"ELEMENT_SET_NO":999,"REV_AT_EPOCH":1532,"BSTAR":0.00065501978,"MEAN_MOTION_DOT":0.0001381,"MEAN_MOTION_DDOT":0}]
